[{"OBJECT_NAME":"STARLINK-32740","OBJECT_ID":"2025-014V","EPOCH":"2026-03-09T05:49:42.043872","MEAN_MOTION":15.27588843,"ECCENTRICITY":0.00018429,"INCLINATION":43.0001,"RA_OF_ASC_NODE":156.5188,"ARG_OF_PERICENTER":269.0252,"MEAN_ANOMALY":91.0389,"EPHEMERIS_TYPE":0,"CLASSIFICATION_TYPE":"U","NORAD_CAT_ID":62754,"ELEMENT_SET_NO":999,"REV_AT_EPOCH":6319,"BSTAR":0.0014503161,"MEAN_MOTION_DOT":0.00039875,"MEAN_MOTION_DDOT":0},{"OBJECT_NAME":"HERMES-2","OBJECT_ID":"2025-052AK","EPOCH":"2026-03-09T22:17:00.130272","MEAN_MOTION":15.28021069,"ECCENTRICITY":0.00063399,"INCLINATION":97.4004,"RA_OF_ASC_NODE":324.4926,"ARG_OF_PERICENTER":99.416,"MEAN_ANOMALY":260.7796,"EPHEMERIS_TYPE":0,"CLASSIFICATION_TYPE":"U","NORAD_CAT_ID":63243,"ELEMENT_SET_NO":999,"REV_AT_EPOCH":5485,"BSTAR":0.00034839454,"MEAN_MOTION_DOT":9.456e-5,"MEAN_MOTION_DDOT":0}]
